[{"OBJECT_NAME":"ORBCOMM FM116","OBJECT_ID":"2015-081L","EPOCH":"2026-03-09T05:44:04.657056","MEAN_MOTION":14.5872653,"ECCENTRICITY":0.00024763,"INCLINATION":47.0036,"RA_OF_ASC_NODE":23.149,"ARG_OF_PERICENTER":312.0153,"MEAN_ANOMALY":48.0522,"EPHEMERIS_TYPE":0,"CLASSIFICATION_TYPE":"U","NORAD_CAT_ID":41189,"ELEMENT_SET_NO":999,"REV_AT_EPOCH":54434,"BSTAR":0.00026879569,"MEAN_MOTION_DOT":1.096e-5,"MEAN_MOTION_DDOT":0},{"OBJECT_NAME":"CZ-6A DEB","OBJECT_ID":"2024-140UD","EPOCH":"2026-03-09T13:36:50.945184","MEAN_MOTION":14.43593206,"ECCENTRICITY":0.0078897,"INCLINATION":89.0612,"RA_OF_ASC_NODE":288.0139,"ARG_OF_PERICENTER":318.7531,"MEAN_ANOMALY":40.7728,"EPHEMERIS_TYPE":0,"CLASSIFICATION_TYPE":"U","NORAD_CAT_ID":61316,"ELEMENT_SET_NO":999,"REV_AT_EPOCH":18037,"BSTAR":0.00068854,"MEAN_MOTION_DOT":2.437e-5,"MEAN_MOTION_DDOT":0}]
